STARLETTE               
1 07646U 75010A   22247.48875569 -.00000147  00000+0 -32549-5 0  9996
2 07646  49.8236 158.2553 0205758 178.6747 181.4731 13.82313311403416
LAGEOS 1                
1 08820U 76039A   22247.47435102  .00000039  00000+0  00000+0 0  9996
2 08820 109.8518  66.0585 0045127 237.9439 130.3324  6.38664814824903
AJISAI (EGS)            
1 16908U 86061A   22247.51876105 -.00000103  00000+0 -42729-4 0  9998
2 16908  50.0090  75.9222 0011132 263.5851 136.8809 12.44497128308340
COSMOS 1989 (ETALON 1)  
1 19751U 89001C   22247.28100613  .00000012  00000+0  00000+0 0  9990
2 19751  64.3203 119.6746 0023813 213.3816 251.1671  2.13156232261915
COSMOS 2024 (ETALON 2)  
1 20026U 89039C   22247.27460410 -.00000068  00000+0  00000+0 0  9993
2 20026  65.5311 357.7151 0018561 218.5245 164.0743  2.13204202259041
LAGEOS 2                
1 22195U 92070B   22246.17419001 -.00000009  00000+0  00000+0 0  9994
2 22195  52.6635  60.6707 0138373 302.7999 205.8406  6.47293762705887
STELLA                  
1 22824U 93061B   22247.56198080 -.00000042  00000+0  20520-5 0  9991
2 22824  98.9621 270.4702 0005389 289.9900 243.3415 14.27392665507660
LARES                   
1 38077U 12006A   22247.33377255 -.00000046  00000+0 -46453-4 0  9993
2 38077  69.4921 132.5734 0011519 264.8809  95.0900 12.54931055483808
